[
    {
        "Altitude(m)": 611965.1913112793,
        "Argument of Periapsis(deg)": 0.0,
        "Eccentricity": 0.0,
        "Inclination(deg)": 60.0,
        "Latitude(deg)": 59.14017961638185,
        "Longitude(deg)": -156.03002878316877,
        "Mean Anomaly(deg)": 81.8182,
        "RAAN(deg)": 229.99999999999997,
        "Satellite Name": "Test1 1017",
        "Satellite Number": 1017,
        "Semi-Major Axis(m)": 6980739.136638005,
        "Time(s)": 0
    },
    {
        "Altitude(m)": 611995.8162009858,
        "Argument of Periapsis(deg)": 0.00010418945913296404,
        "Eccentricity": 0.0,
        "Inclination(deg)": 60.0,
        "Latitude(deg)": 59.28327778017411,
        "Longitude(deg)": -154.89666516205935,
        "Mean Anomaly(deg)": 82.43830614546181,
        "RAAN(deg)": 229.99957995086024,
        "Satellite Name": "Test1 1017",
        "Satellite Number": 1017,
        "Semi-Major Axis(m)": 6980739.136638005,
        "Time(s)": 10
    }
]